[
    {
        "CCSDS_OMM_VERS": "3.0",
        "COMMENT": "GENERATED VIA SPACE-TRACK.ORG API",
        "CREATION_DATE": "2025-05-03T17:28:03",
        "ORIGINATOR": "18 SPCS",
        "OBJECT_NAME": "NAVSTAR 72 (USA 258)",
        "OBJECT_ID": "2014-068A",
        "CENTER_NAME": "EARTH",
        "REF_FRAME": "TEME",
        "TIME_SYSTEM": "UTC",
        "MEAN_ELEMENT_THEORY": "SGP4",
        "EPOCH": "2025-05-03T02:05:32.213760",
        "MEAN_MOTION": "2.00579873",
        "ECCENTRICITY": "0.00587310",
        "INCLINATION": "56.6883",
        "RA_OF_ASC_NODE": "46.7980",
        "ARG_OF_PERICENTER": "64.6001",
        "MEAN_ANOMALY": "296.0056",
        "EPHEMERIS_TYPE": "0",
        "CLASSIFICATION_TYPE": "U",
        "NORAD_CAT_ID": "40294",
        "ELEMENT_SET_NO": "999",
        "REV_AT_EPOCH": "7698",
        "BSTAR": "0.00000000000000",
        "MEAN_MOTION_DOT": "-0.00000073",
        "MEAN_MOTION_DDOT": "0.0000000000000",
        "SEMIMAJOR_AXIS": "26558.912",
        "PERIOD": "717.918",
        "APOAPSIS": "20336.760",
        "PERIAPSIS": "20024.793",
        "OBJECT_TYPE": "PAYLOAD",
        "RCS_SIZE": "LARGE",
        "COUNTRY_CODE": "US",
        "LAUNCH_DATE": "2014-10-29",
        "SITE": "AFETR",
        "DECAY_DATE": null,
        "FILE": "4717971",
        "GP_ID": "286760049",
        "TLE_LINE0": "0 NAVSTAR 72 (USA 258)",
        "TLE_LINE1": "1 40294U 14068A   25123.08717840 -.00000073  00000-0  00000-0 0  9997",
        "TLE_LINE2": "2 40294  56.6883  46.7980 0058731  64.6001 296.0056  2.00579873 76981"
    }
]